[
    {
        "Altitude(m)": 607895.8576189178,
        "Argument of Periapsis(deg)": 0.0,
        "Eccentricity": 0.0,
        "Inclination(deg)": 60.0,
        "Latitude(deg)": 40.99844857198585,
        "Longitude(deg)": 110.08867081236617,
        "Mean Anomaly(deg)": 130.9091,
        "RAAN(deg)": 60.0,
        "Satellite Name": "Test1 272",
        "Satellite Number": 272,
        "Semi-Major Axis(m)": 6980739.136638005,
        "Time(s)": 0
    },
    {
        "Altitude(m)": 607795.1702687568,
        "Argument of Periapsis(deg)": 0.00010418945913296404,
        "Eccentricity": 0.0,
        "Inclination(deg)": 60.0,
        "Latitude(deg)": 40.530772584193166,
        "Longitude(deg)": 110.58526503542541,
        "Mean Anomaly(deg)": 131.5292061454618,
        "RAAN(deg)": 59.99957995086026,
        "Satellite Name": "Test1 272",
        "Satellite Number": 272,
        "Semi-Major Axis(m)": 6980739.136638005,
        "Time(s)": 10
    }
]